{
    "links": {
        "self": "http://www.neowsapp.com/rest/v1/neo/3477941?api_key=iIulBulltgU6a56xZRHN4H3l9WmuAYTsLGpBGhQ2"
    },
    "id": "3477941",
    "neo_reference_id": "3477941",
    "name": "(2009 WX7)",
    "designation": "2009 WX7",
    "nasa_jpl_url": "http://ssd.jpl.nasa.gov/sbdb.cgi?sstr=3477941",
    "absolute_magnitude_h": 26.9,
    "estimated_diameter": {
        "kilometers": {
            "estimated_diameter_min": 0.0110803882,
            "estimated_diameter_max": 0.0247765013
        },
        "meters": {
            "estimated_diameter_min": 11.0803882126,
            "estimated_diameter_max": 24.7765012606
        },
        "miles": {
            "estimated_diameter_min": 0.0068850319,
            "estimated_diameter_max": 0.0153953994
        },
        "feet": {
            "estimated_diameter_min": 36.3529808636,
            "estimated_diameter_max": 81.2877363957
        }
    },
    "is_potentially_hazardous_asteroid": false,
    "close_approach_data": [
        {
            "close_approach_date": "2009-11-16",
            "close_approach_date_full": "2009-Nov-16 20:23",
            "epoch_date_close_approach": 1258402980000,
            "relative_velocity": {
                "kilometers_per_second": "7.0859508445",
                "kilometers_per_hour": "25509.4230403706",
                "miles_per_hour": "15850.5634441681"
            },
            "miss_distance": {
                "astronomical": "0.0095184062",
                "lunar": "3.7026600118",
                "kilometers": "1423933.293314794",
                "miles": "884791.1201563972"
            },
            "orbiting_body": "Earth"
        },
        {
            "close_approach_date": "2043-12-23",
            "close_approach_date_full": "2043-Dec-23 03:44",
            "epoch_date_close_approach": 2334455040000,
            "relative_velocity": {
                "kilometers_per_second": "17.5046453031",
                "kilometers_per_hour": "63016.7230913065",
                "miles_per_hour": "39156.1410785954"
            },
            "miss_distance": {
                "astronomical": "0.3425455416",
                "lunar": "133.2502156824",
                "kilometers": "51244083.401356392",
                "miles": "31841596.9111345296"
            },
            "orbiting_body": "Earth"
        },
        {
            "close_approach_date": "2048-09-01",
            "close_approach_date_full": "2048-Sep-01 18:28",
            "epoch_date_close_approach": 2482597680000,
            "relative_velocity": {
                "kilometers_per_second": "16.6653080038",
                "kilometers_per_hour": "59995.1088137873",
                "miles_per_hour": "37278.6274737669"
            },
            "miss_distance": {
                "astronomical": "0.3208271783",
                "lunar": "124.8017723587",
                "kilometers": "47995062.511790221",
                "miles": "29822748.9455822098"
            },
            "orbiting_body": "Earth"
        },
        {
            "close_approach_date": "2051-07-25",
            "close_approach_date_full": "2051-Jul-25 07:38",
            "epoch_date_close_approach": 2573883480000,
            "relative_velocity": {
                "kilometers_per_second": "11.2352179701",
                "kilometers_per_hour": "40446.7846922099",
                "miles_per_hour": "25132.0590772234"
            },
            "miss_distance": {
                "astronomical": "0.0652970521",
                "lunar": "25.4005532669",
                "kilometers": "9768299.911439027",
                "miles": "6069740.1073794926"
            },
            "orbiting_body": "Mars"
        }
    ],
    "orbital_data": {
        "orbit_id": "9",
        "orbit_determination_date": "2017-04-06 08:59:05",
        "first_observation_date": "2009-11-19",
        "last_observation_date": "2009-11-21",
        "data_arc_in_days": 2,
        "observations_used": 21,
        "orbit_uncertainty": "8",
        "minimum_orbit_intersection": ".00781791",
        "jupiter_tisserand_invariant": "3.920",
        "epoch_osculation": "2455155.5",
        "eccentricity": ".4581438436076603",
        "semi_major_axis": "1.811320306910117",
        "inclination": "2.920713823421103",
        "ascending_node_longitude": "60.20296897651794",
        "orbital_period": "890.4126287331572",
        "perihelion_distance": ".9814750594977091",
        "perihelion_argument": "336.5135353062183",
        "aphelion_distance": "2.641165554322525",
        "perihelion_time": "2455137.862648808665",
        "mean_anomaly": "7.130903385674498",
        "mean_motion": ".4043069340921111",
        "equinox": "J2000",
        "orbit_class": {
            "orbit_class_type": "APO",
            "orbit_class_description": "Near-Earth asteroid orbits which cross the Earth’s orbit similar to that of 1862 Apollo",
            "orbit_class_range": "a (semi-major axis) > 1.0 AU; q (perihelion) < 1.017 AU"
        }
    },
    "is_sentry_object": false
}